{
  "version": 1,
  "fetchedAt": "2026-06-20T14:26:57.371Z",
  "source": "celestrak-gp",
  "counts": {
    "station": 24,
    "satellite": 520,
    "debris": 250
  },
  "objects": [
    {
      "id": "48274",
      "name": "CSS (TIANHE)",
      "displayName": "中国空间站 天宫（天和核心舱）",
      "noradId": 48274,
      "line1": "1 48274U 21035A   26170.72834613  .00019835  00000+0  23343-3 0  9999",
      "line2": "2 48274  41.4696 306.5363 0007349  99.2772 260.8898 15.60907257293560",
      "category": "station",
      "highlight": true,
      "operator": "中国载人航天"
    },
    {
      "id": "66515",
      "name": "SZ-21 MODULE",
      "noradId": 66515,
      "line1": "1 66515U 25246C   26171.31981735  .00042089  00000+0  25599-3 0  9991",
      "line2": "2 66515  41.4727 287.8120 0005803  12.7743 347.3248 15.76646809 34233",
      "category": "station"
    },
    {
      "id": "28932",
      "name": "H-2A R/B",
      "noradId": 28932,
      "line1": "1 28932U 06002B   26171.15250161  .00005373  00000+0  25930-3 0  9999",
      "line2": "2 28932  98.2571 327.2495 0049617 251.9412 107.6411 15.18091958109974",
      "category": "satellite"
    },
    {
      "id": "29228",
      "name": "RESURS-DK 1",
      "noradId": 29228,
      "line1": "1 29228U 06021A   26170.87779164  .00001495  00000+0  90007-4 0  9995",
      "line2": "2 29228  69.9330 332.5885 0006889 290.5027  69.5400 15.13226644102983",
      "category": "satellite"
    },
    {
      "id": "29507",
      "name": "CZ-4B R/B",
      "noradId": 29507,
      "line1": "1 29507U 06046C   26171.15364409  .00002962  00000+0  14825-3 0  9999",
      "line2": "2 29507  97.5448 215.7517 0030926 271.9092  87.8599 15.17800930 75585",
      "category": "satellite"
    },
    {
      "id": "31114",
      "name": "CZ-2C R/B",
      "noradId": 31114,
      "line1": "1 31114U 07010B   26171.30055291  .00000050  00000+0  41952-4 0  9999",
      "line2": "2 31114  98.4102 279.4992 0058826 357.0679   3.0145 14.20276704994282",
      "category": "satellite"
    },
    {
      "id": "31598",
      "name": "COSMO-SKYMED 1",
      "noradId": 31598,
      "line1": "1 31598U 07023A   26171.27634656  .00002333  00000+0  20735-3 0  9994",
      "line2": "2 31598  97.8851   3.1578 0001533  97.5504 262.5891 14.97113076 30254",
      "category": "satellite"
    },
    {
      "id": "31792",
      "name": "COSMOS 2428",
      "noradId": 31792,
      "line1": "1 31792U 07029A   26170.90473080 -.00000091  00000+0 -23180-4 0  9996",
      "line2": "2 31792  70.9350 348.7715 0007125 129.7553 230.4196 14.12927887978536",
      "category": "satellite"
    },
    {
      "id": "31793",
      "name": "SL-16 R/B",
      "noradId": 31793,
      "line1": "1 31793U 07029B   26171.17262252 -.00000006  00000+0  21916-4 0  9994",
      "line2": "2 31793  70.9771 316.9520 0002386 262.9009 275.7523 14.14855711979866",
      "category": "satellite"
    },
    {
      "id": "33504",
      "name": "KORONAS-FOTON",
      "noradId": 33504,
      "line1": "1 33504U 09003A   26171.25054977  .00010074  00000+0  20679-3 0  9991",
      "line2": "2 33504  82.4290 169.0638 0011964 137.6356 222.5818 15.45776287961575",
      "category": "satellite"
    },
    {
      "id": "37731",
      "name": "CZ-2C R/B",
      "noradId": 37731,
      "line1": "1 37731U 11030B   26171.30203826  .00000965  00000+0  12719-3 0  9999",
      "line2": "2 37731  97.8654 126.6318 0052797  18.0045 144.8423 14.81477870805283",
      "category": "satellite"
    },
    {
      "id": "38341",
      "name": "H-2A R/B",
      "noradId": 38341,
      "line1": "1 38341U 12025E   26171.16730707  .00001588  00000+0  14624-3 0  9998",
      "line2": "2 38341  98.4833 146.5585 0043450 339.3581  20.5881 14.95732315763536",
      "category": "satellite"
    },
    {
      "id": "39358",
      "name": "SHIJIAN-16 (SJ-16)",
      "noradId": 39358,
      "line1": "1 39358U 13057A   26171.25562329  .00000612  00000+0  62171-4 0  9994",
      "line2": "2 39358  74.9730 350.8706 0016720 223.6284 136.3584 14.92608741686802",
      "category": "satellite"
    },
    {
      "id": "39679",
      "name": "SL-4 R/B",
      "noradId": 39679,
      "line1": "1 39679U 14021B   26171.30428645  .00007842  00000+0  16506-3 0  9992",
      "line2": "2 39679  51.6043 195.4987 0091115 117.3398 243.6898 15.42006860672093",
      "category": "satellite"
    },
    {
      "id": "39766",
      "name": "ALOS-2",
      "noradId": 39766,
      "line1": "1 39766U 14029A   26171.25027759  .00001075  00000+0  15075-3 0  9994",
      "line2": "2 39766  97.9222 268.3700 0001677  92.1708 267.9695 14.79476941652030",
      "category": "satellite"
    },
    {
      "id": "41038",
      "name": "YAOGAN-29",
      "noradId": 41038,
      "line1": "1 41038U 15069A   26171.28134169 -.00000177  00000+0 -15133-4 0  9991",
      "line2": "2 41038  98.0022 199.9195 0002460  48.8902 311.2523 14.83085482571086",
      "category": "satellite"
    },
    {
      "id": "41337",
      "name": "ASTRO-H (HITOMI)",
      "noradId": 41337,
      "line1": "1 41337U 16012A   26171.07394254  .00001943  00000+0  10927-3 0  9997",
      "line2": "2 41337  30.9996  55.5433 0009776 282.4746  77.4798 15.10521114567723",
      "category": "satellite"
    },
    {
      "id": "42758",
      "name": "HXMT (HUIYAN)",
      "noradId": 42758,
      "line1": "1 42758U 17034A   26171.29170100  .00002218  00000+0  11598-3 0  9997",
      "line2": "2 42758  43.0125 165.7537 0031004 167.1425 193.0221 15.18491409498136",
      "category": "satellite"
    },
    {
      "id": "43641",
      "name": "SAOCOM 1A",
      "noradId": 43641,
      "line1": "1 43641U 18076A   26171.30904325 -.00000157  00000+0 -13122-4 0  9990",
      "line2": "2 43641  97.8884 358.0116 0001591  78.5880 281.5512 14.82149138416567",
      "category": "satellite"
    },
    {
      "id": "43682",
      "name": "H-2A R/B",
      "noradId": 43682,
      "line1": "1 43682U 18084L   26171.23657909  .00017934  00000+0  37540-3 0  9997",
      "line2": "2 43682  98.8569  50.7922 0023184  30.2137 330.0439 15.45255214421596",
      "category": "satellite"
    },
    {
      "id": "46265",
      "name": "SAOCOM 1B",
      "noradId": 46265,
      "line1": "1 46265U 20059A   26171.27269029  .00000272  00000+0  40718-4 0  9997",
      "line2": "2 46265  97.8888 357.0706 0001605  84.8682 275.2715 14.82147455313949",
      "category": "satellite"
    },
    {
      "id": "48865",
      "name": "COSMOS 2550",
      "noradId": 48865,
      "line1": "1 48865U 21056A   26171.28445907  .00006465  00000+0  20207-3 0  9995",
      "line2": "2 48865  67.1431  90.5368 0008431 268.4054  91.6135 15.33843412279198",
      "category": "satellite"
    },
    {
      "id": "52794",
      "name": "CZ-2C R/B",
      "noradId": 52794,
      "line1": "1 52794U 22058K   26170.41728611  .00035796  00000+0  39544-3 0  9997",
      "line2": "2 52794  50.1848 151.9127 0032468 277.2329  82.4954 15.61996467225999",
      "category": "satellite"
    },
    {
      "id": "54039",
      "name": "CZ-2C R/B",
      "noradId": 54039,
      "line1": "1 54039U 22132E   26170.95396000  .00054114  00000+0  41476-3 0  9998",
      "line2": "2 54039  97.2906 178.1016 0015540  75.9448 284.3542 15.71789278206384",
      "category": "satellite"
    },
    {
      "id": "54149",
      "name": "GSLV R/B",
      "noradId": 54149,
      "line1": "1 54149U 22138AN  26170.92479223  .00001913  00000+0  16178-3 0  9992",
      "line2": "2 54149  87.3806 132.0650 0023196 134.4319 225.8816 14.97267297199229",
      "category": "satellite"
    },
    {
      "id": "57800",
      "name": "XRISM",
      "noradId": 57800,
      "line1": "1 57800U 23137A   26171.16040668  .00004151  00000+0  22709-3 0  9997",
      "line2": "2 57800  31.0032 340.3423 0007922 353.3613   6.6920 15.12489019153310",
      "category": "satellite"
    },
    {
      "id": "59588",
      "name": "ACS3",
      "noradId": 59588,
      "line1": "1 59588U 24077B   26171.29160164  .00040782  00000+0  29694-1 0  9992",
      "line2": "2 59588  97.1689  89.3901 0081903  61.6302 299.3092 13.94326036108477",
      "category": "satellite"
    },
    {
      "id": "66004",
      "name": "CZ-8A R/B",
      "noradId": 66004,
      "line1": "1 66004U 25231K   26170.84699389 -.00000024  00000+0  49587-4 0  9994",
      "line2": "2 66004  50.0053  28.0000 0116484 233.3764 125.6394 14.30155482 35329",
      "category": "satellite"
    }
  ]
}