OBJECT_NAME,OBJECT_ID,EPOCH,MEAN_MOTION,ECCENTRICITY,INCLINATION,RA_OF_ASC_NODE,ARG_OF_PERICENTER,MEAN_ANOMALY,EPHEMERIS_TYPE,CLASSIFICATION_TYPE,NORAD_CAT_ID,ELEMENT_SET_NO,REV_AT_EPOCH,BSTAR,MEAN_MOTION_DOT,MEAN_MOTION_DDOT
H-2A R/B,2006-002B,2026-06-20T03:39:36.139104,15.18091958,.00496174,98.2571,327.2495,251.9412,107.6411,0,U,28932,999,10997,.25930235E-3,.5373E-4,0
RESURS-DK 1,2006-021A,2026-06-19T21:04:01.197696,15.13226644,.00068891,69.9330,332.5885,290.5027,69.5400,0,U,29228,999,10298,.9000743E-4,.1495E-4,0
CZ-4B R/B,2006-046C,2026-06-20T03:41:14.849376,15.17800930,.00309263,97.5448,215.7517,271.9092,87.8599,0,U,29507,999,7558,.14824626E-3,.2962E-4,0
CZ-2C R/B,2007-010B,2026-06-20T07:12:47.771424,14.20276704,.00588267,98.4102,279.4992,357.0679,3.0145,0,U,31114,999,99428,.41952082E-4,.5E-6,0
COSMO-SKYMED 1,2007-023A,2026-06-20T06:37:56.342784,14.97113076,.00015333,97.8851,3.1578,97.5504,262.5891,0,U,31598,999,3025,.2073465E-3,.2333E-4,0
COSMOS 2428,2007-029A,2026-06-19T21:42:48.741120,14.12927887,.00071255,70.9350,348.7715,129.7553,230.4196,0,U,31792,999,97853,-.23180398E-4,-.91E-6,0
SL-16 R/B,2007-029B,2026-06-20T04:08:34.585728,14.14855711,.00023865,70.9771,316.9520,262.9009,275.7523,0,U,31793,999,97986,.21915845E-4,-.6E-7,0
KORONAS-FOTON,2009-003A,2026-06-20T06:00:47.500128,15.45776287,.00119641,82.4290,169.0638,137.6356,222.5818,0,U,33504,999,96157,.20678877E-3,.10074E-3,0
CZ-2C R/B,2011-030B,2026-06-20T07:14:56.105664,14.81477870,.00527977,97.8654,126.6318,18.0045,144.8423,0,U,37731,999,80528,.12719246E-3,.965E-5,0
H-2A R/B,2012-025E,2026-06-20T04:00:55.330848,14.95732315,.00434506,98.4833,146.5585,339.3581,20.5881,0,U,38341,999,76353,.14624308E-3,.1588E-4,0
SHIJIAN-16 (SJ-16),2013-057A,2026-06-20T06:08:05.852256,14.92608741,.00167203,74.9730,350.8706,223.6284,136.3584,0,U,39358,999,68680,.62170611E-4,.612E-5,0
SL-4 R/B,2014-021B,2026-06-20T07:18:10.349280,15.42006860,.00911153,51.6043,195.4987,117.3398,243.6898,0,U,39679,999,67209,.16505637E-3,.7842E-4,0
ALOS-2,2014-029A,2026-06-20T06:00:23.983776,14.79476941,.00016778,97.9222,268.3700,92.1708,267.9695,0,U,39766,999,65203,.15075075E-3,.1075E-4,0
YAOGAN-29,2015-069A,2026-06-20T06:45:07.922016,14.83085482,.00024609,98.0022,199.9195,48.8902,311.2523,0,U,41038,999,57108,-.15133112E-4,-.177E-5,0
ASTRO-H (HITOMI),2016-012A,2026-06-20T01:46:28.635456,15.10521114,.00097762,30.9996,55.5433,282.4746,77.4798,0,U,41337,999,56772,.10927049E-3,.1943E-4,0
HXMT (HUIYAN),2017-034A,2026-06-20T07:00:02.966400,15.18491409,.00310043,43.0125,165.7537,167.1425,193.0221,0,U,42758,999,49813,.11597546E-3,.2218E-4,0
SAOCOM 1A,2018-076A,2026-06-20T07:25:01.336800,14.82149138,.0001591,97.8884,358.0116,78.5880,281.5512,0,U,43641,999,41656,-.13122243E-4,-.157E-5,0
H-2A R/B,2018-084L,2026-06-20T05:40:40.433376,15.45255214,.00231849,98.8569,50.7922,30.2137,330.0439,0,U,43682,999,42159,.37539602E-3,.17934E-3,0
SAOCOM 1B,2020-059A,2026-06-20T06:32:40.441056,14.82147455,.00016054,97.8888,357.0706,84.8682,275.2715,0,U,46265,999,31394,.40717656E-4,.272E-5,0
CSS (TIANHE),2021-035A,2026-06-19T17:28:49.105632,15.60907257,.00073498,41.4696,306.5363,99.2772,260.8898,0,U,48274,999,29356,.23343205E-3,.19835E-3,0
COSMOS 2550,2021-056A,2026-06-20T06:49:37.263648,15.33843412,.00084313,67.1431,90.5368,268.4054,91.6135,0,U,48865,999,27919,.20207124E-3,.6465E-4,0
CZ-2C R/B,2022-058K,2026-06-19T10:00:53.519904,15.61996467,.00324688,50.1848,151.9127,277.2329,82.4954,0,U,52794,999,22599,.39544038E-3,.35796E-3,0
CZ-2C R/B,2022-132E,2026-06-19T22:53:42.144000,15.71789278,.00155407,97.2906,178.1016,75.9448,284.3542,0,U,54039,999,20638,.41475501E-3,.54114E-3,0
GSLV R/B,2022-138AN,2026-06-19T22:11:42.048672,14.97267297,.00231961,87.3806,132.0650,134.4319,225.8816,0,U,54149,999,19922,.16178169E-3,.1913E-4,0
XRISM,2023-137A,2026-06-20T03:50:59.137152,15.12489019,.00079222,31.0032,340.3423,353.3613,6.6920,0,U,57800,999,15331,.22708659E-3,.4151E-4,0
ACS3,2024-077B,2026-06-20T06:59:54.381696,13.94326036,.00819035,97.1689,89.3901,61.6302,299.3092,0,U,59588,999,10847,.29693751E-1,.40782E-3,0
CZ-8A R/B,2025-231K,2026-06-19T20:19:40.272096,14.30155482,.01164849,50.0053,28.0000,233.3764,125.6394,0,U,66004,999,3532,.49586826E-4,-.24E-6,0
SZ-21 MODULE,2025-246C,2026-06-20T07:40:32.219040,15.76646809,.00058038,41.4727,287.8120,12.7743,347.3248,0,U,66515,999,3423,.25599102E-3,.42089E-3,0
